start=new Date('2022-05-02T00:00:00.000Z').valueOf();
sats=[{"MEAN_MOTION_DOT":"-0.00667989","TLE_LINE1":"1 49151U 21082X   22121.91668981 -.00667989  00000-0 -30660-1 0  9992","DECAY_DATE":null,"LAUNCH_DATE":"2021-09-14","EPHEMERIS_TYPE":"0","COUNTRY_CODE":"US","TLE_LINE2":"2 49151  69.9999 204.0151 0003327 285.2519 296.0974 15.22897806  3629","PERIAPSIS":"494.820","SITE":"AFWTR","INCLINATION":"69.9999","MEAN_MOTION_DDOT":"0.0000000000000","OBJECT_NAME":"STARLINK-3102","OBJECT_ID":"2021-082X","GP_ID":"202476090","CENTER_NAME":"EARTH","OBJECT_TYPE":"PAYLOAD","MEAN_ANOMALY":"296.0974","REV_AT_EPOCH":"362","ECCENTRICITY":"0.00033270","REF_FRAME":"TEME","FILE":"3424759","NORAD_CAT_ID":"49151","ELEMENT_SET_NO":"999","PERIOD":"94.557","CLASSIFICATION_TYPE":"U","EPOCH":"2022-05-01T22:00:01.999584","RA_OF_ASC_NODE":"204.0151","BSTAR":"-0.03066000000000","APOAPSIS":"499.395","RCS_SIZE":"LARGE","ARG_OF_PERICENTER":"285.2519","TIME_SYSTEM":"UTC","SEMIMAJOR_AXIS":"6875.242","MEAN_MOTION":"15.22897806","MEAN_ELEMENT_THEORY":"SGP4"},{"EPOCH":"2022-05-01T22:00:01.999584","CLASSIFICATION_TYPE":"U","ELEMENT_SET_NO":"999","PERIOD":"94.465","NORAD_CAT_ID":"49152","MEAN_MOTION":"15.24367146","MEAN_ELEMENT_THEORY":"SGP4","SEMIMAJOR_AXIS":"6870.823","ARG_OF_PERICENTER":"285.7253","TIME_SYSTEM":"UTC","APOAPSIS":"494.895","RCS_SIZE":"LARGE","RA_OF_ASC_NODE":"204.0277","BSTAR":"-0.02681300000000","PERIAPSIS":"490.482","TLE_LINE2":"2 49152  70.0001 204.0277 0003212 285.7253 318.8952 15.24367146  3629","SITE":"AFWTR","COUNTRY_CODE":"US","EPHEMERIS_TYPE":"0","LAUNCH_DATE":"2021-09-14","DECAY_DATE":null,"TLE_LINE1":"1 49152U 21082Y   22121.91668981 -.00614096  00000-0 -26813-1 0  9999","MEAN_MOTION_DOT":"-0.00614096","FILE":"3424759","REF_FRAME":"TEME","REV_AT_EPOCH":"362","ECCENTRICITY":"0.00032120","CENTER_NAME":"EARTH","OBJECT_TYPE":"PAYLOAD","MEAN_ANOMALY":"318.8952","GP_ID":"202474847","OBJECT_ID":"2021-082Y","MEAN_MOTION_DDOT":"0.0000000000000","OBJECT_NAME":"STARLINK-3081","INCLINATION":"70.0001"},{"MEAN_MOTION_DOT":"-0.00727585","TLE_LINE1":"1 49153U 21082Z   22121.91668981 -.00727585  00000-0 -32497-1 0  9993","DECAY_DATE":null,"LAUNCH_DATE":"2021-09-14","COUNTRY_CODE":"US","EPHEMERIS_TYPE":"0","SITE":"AFWTR","PERIAPSIS":"492.709","TLE_LINE2":"2 49153  70.0000 203.9816 0003219 275.6798   5.6564 15.23624440  3661","INCLINATION":"70.0000","OBJECT_NAME":"STARLINK-3072","MEAN_MOTION_DDOT":"0.0000000000000","OBJECT_ID":"2021-082Z","GP_ID":"202474597","MEAN_ANOMALY":"5.6564","OBJECT_TYPE":"PAYLOAD","CENTER_NAME":"EARTH","ECCENTRICITY":"0.00032190","REV_AT_EPOCH":"366","REF_FRAME":"TEME","FILE":"3424759","NORAD_CAT_ID":"49153","PERIOD":"94.511","ELEMENT_SET_NO":"999","CLASSIFICATION_TYPE":"U","EPOCH":"2022-05-01T22:00:01.999584","BSTAR":"-0.03249700000000","RA_OF_ASC_NODE":"203.9816","RCS_SIZE":"LARGE","APOAPSIS":"497.134","ARG_OF_PERICENTER":"275.6798","TIME_SYSTEM":"UTC","SEMIMAJOR_AXIS":"6873.056","MEAN_ELEMENT_THEORY":"SGP4","MEAN_MOTION":"15.23624440"},{"ELEMENT_SET_NO":"999","PERIOD":"96.210","NORAD_CAT_ID":"49154","EPOCH":"2022-05-01T22:00:01.999584","CLASSIFICATION_TYPE":"U","ARG_OF_PERICENTER":"277.6495","TIME_SYSTEM":"UTC","APOAPSIS":"579.365","RCS_SIZE":"LARGE","RA_OF_ASC_NODE":"223.2047","BSTAR":"-0.00364320000000","MEAN_MOTION":"14.96724561","MEAN_ELEMENT_THEORY":"SGP4","SEMIMAJOR_AXIS":"6955.162","TLE_LINE1":"1 49154U 21082AA  22121.91668981 -.00041554  00000-0 -36432-2 0  9993","DECAY_DATE":null,"MEAN_MOTION_DOT":"-0.00041554","PERIAPSIS":"574.689","TLE_LINE2":"2 49154  70.0006 223.2047 0003362 277.6495 168.1386 14.96724561  3597","SITE":"AFWTR","COUNTRY_CODE":"US","EPHEMERIS_TYPE":"0","LAUNCH_DATE":"2021-09-14","GP_ID":"202475347","OBJECT_ID":"2021-082AA","MEAN_MOTION_DDOT":"0.0000000000000","OBJECT_NAME":"STARLINK-3068","INCLINATION":"70.0006","FILE":"3424759","REF_FRAME":"TEME","REV_AT_EPOCH":"359","ECCENTRICITY":"0.00033620","CENTER_NAME":"EARTH","MEAN_ANOMALY":"168.1386","OBJECT_TYPE":"PAYLOAD"},{"NORAD_CAT_ID":"49155","ELEMENT_SET_NO":"999","PERIOD":"94.473","CLASSIFICATION_TYPE":"U","EPOCH":"2022-05-01T22:00:01.999584","APOAPSIS":"495.238","RCS_SIZE":"LARGE","TIME_SYSTEM":"UTC","ARG_OF_PERICENTER":"274.4585","RA_OF_ASC_NODE":"204.0248","BSTAR":"-0.03188600000000","MEAN_MOTION":"15.24240434","MEAN_ELEMENT_THEORY":"SGP4","SEMIMAJOR_AXIS":"6871.204","TLE_LINE1":"1 49155U 21082AB  22121.91668981 -.00727177  00000-0 -31886-1 0  9993","DECAY_DATE":null,"MEAN_MOTION_DOT":"-0.00727177","COUNTRY_CODE":"US","EPHEMERIS_TYPE":"0","TLE_LINE2":"2 49155  69.9999 204.0248 0003157 274.4585 305.5234 15.24240434  3664","PERIAPSIS":"490.900","SITE":"AFWTR","LAUNCH_DATE":"2021-09-14","OBJECT_ID":"2021-082AB","GP_ID":"202475590","INCLINATION":"69.9999","MEAN_MOTION_DDOT":"0.0000000000000","OBJECT_NAME":"STARLINK-3060","REF_FRAME":"TEME","FILE":"3424759","CENTER_NAME":"EARTH","OBJECT_TYPE":"PAYLOAD","MEAN_ANOMALY":"305.5234","REV_AT_EPOCH":"366","ECCENTRICITY":"0.00031570"},{"RCS_SIZE":"LARGE","APOAPSIS":"493.824","TIME_SYSTEM":"UTC","ARG_OF_PERICENTER":"286.5776","BSTAR":"-0.02673000000000","RA_OF_ASC_NODE":"204.0087","MEAN_ELEMENT_THEORY":"SGP4","MEAN_MOTION":"15.24744945","SEMIMAJOR_AXIS":"6869.688","NORAD_CAT_ID":"49156","PERIOD":"94.442","ELEMENT_SET_NO":"999","CLASSIFICATION_TYPE":"U","EPOCH":"2022-05-01T22:00:01.999584","OBJECT_ID":"2021-082AC","GP_ID":"202474347","INCLINATION":"70.0003","OBJECT_NAME":"STARLINK-3085","MEAN_MOTION_DDOT":"0.0000000000000","REF_FRAME":"TEME","FILE":"3424759","MEAN_ANOMALY":"3.1419","OBJECT_TYPE":"PAYLOAD","CENTER_NAME":"EARTH","ECCENTRICITY":"0.00033050","REV_AT_EPOCH":"362","DECAY_DATE":null,"TLE_LINE1":"1 49156U 21082AC  22121.91668981 -.00618844  00000-0 -26730-1 0  9996","MEAN_MOTION_DOT":"-0.00618844","COUNTRY_CODE":"US","EPHEMERIS_TYPE":"0","SITE":"AFWTR","TLE_LINE2":"2 49156  70.0003 204.0087 0003305 286.5776   3.1419 15.24744945  3624","PERIAPSIS":"489.283","LAUNCH_DATE":"2021-09-14"},{"RCS_SIZE":"LARGE","APOAPSIS":"579.110","ARG_OF_PERICENTER":"273.3611","TIME_SYSTEM":"UTC","BSTAR":"-0.00727430000000","RA_OF_ASC_NODE":"223.2081","MEAN_ELEMENT_THEORY":"SGP4","MEAN_MOTION":"14.96735022","SEMIMAJOR_AXIS":"6955.130","NORAD_CAT_ID":"49157","PERIOD":"96.209","ELEMENT_SET_NO":"999","CLASSIFICATION_TYPE":"U","EPOCH":"2022-05-01T22:00:01.999584","OBJECT_ID":"2021-082AD","GP_ID":"202443173","INCLINATION":"70.0002","OBJECT_NAME":"STARLINK-3051","MEAN_MOTION_DDOT":"0.0000000000000","REF_FRAME":"TEME","FILE":"3424416","OBJECT_TYPE":"PAYLOAD","MEAN_ANOMALY":"198.6893","CENTER_NAME":"EARTH","ECCENTRICITY":"0.00030410","REV_AT_EPOCH":"3671","DECAY_DATE":null,"TLE_LINE1":"1 49157U 21082AD  22121.91668981 -.00082419  00000-0 -72743-2 0  9996","MEAN_MOTION_DOT":"-0.00082419","EPHEMERIS_TYPE":"0","COUNTRY_CODE":"US","SITE":"AFWTR","PERIAPSIS":"574.880","TLE_LINE2":"2 49157  70.0002 223.2081 0003041 273.3611 198.6893 14.96735022 36716","LAUNCH_DATE":"2021-09-14"},{"TLE_LINE1":"1 49158U 21082AE  22121.91668981 -.00061396  00000-0 -54027-2 0  9993","DECAY_DATE":null,"MEAN_MOTION_DOT":"-0.00061396","COUNTRY_CODE":"US","EPHEMERIS_TYPE":"0","TLE_LINE2":"2 49158  70.0009 223.1939 0003343 279.6360 218.5061 14.96718627  3546","PERIAPSIS":"574.720","SITE":"AFWTR","LAUNCH_DATE":"2021-09-14","OBJECT_ID":"2021-082AE","GP_ID":"202475848","INCLINATION":"70.0009","MEAN_MOTION_DDOT":"0.0000000000000","OBJECT_NAME":"STARLINK-3083","REF_FRAME":"TEME","FILE":"3424759","CENTER_NAME":"EARTH","MEAN_ANOMALY":"218.5061","OBJECT_TYPE":"PAYLOAD","REV_AT_EPOCH":"354","ECCENTRICITY":"0.00033430","NORAD_CAT_ID":"49158","ELEMENT_SET_NO":"999","PERIOD":"96.210","CLASSIFICATION_TYPE":"U","EPOCH":"2022-05-01T22:00:01.999584","APOAPSIS":"579.371","RCS_SIZE":"LARGE","ARG_OF_PERICENTER":"279.6360","TIME_SYSTEM":"UTC","RA_OF_ASC_NODE":"223.1939","BSTAR":"-0.00540270000000","MEAN_MOTION":"14.96718627","MEAN_ELEMENT_THEORY":"SGP4","SEMIMAJOR_AXIS":"6955.180"},{"NORAD_CAT_ID":"49159","PERIOD":"96.106","ELEMENT_SET_NO":"999","CLASSIFICATION_TYPE":"U","EPOCH":"2022-05-01T22:00:01.999584","RCS_SIZE":"LARGE","APOAPSIS":"574.250","ARG_OF_PERICENTER":"283.6761","TIME_SYSTEM":"UTC","BSTAR":"-0.00460530000000","RA_OF_ASC_NODE":"243.9319","MEAN_ELEMENT_THEORY":"SGP4","MEAN_MOTION":"14.98339102","SEMIMAJOR_AXIS":"6950.165","TLE_LINE1":"1 49159U 21082AF  22121.91668981 -.00054630  00000-0 -46053-2 0  9997","DECAY_DATE":null,"MEAN_MOTION_DOT":"-0.00054630","EPHEMERIS_TYPE":"0","COUNTRY_CODE":"US","SITE":"AFWTR","TLE_LINE2":"2 49159  70.0012 243.9319 0003194 283.6761  54.0793 14.98339102 36198","PERIAPSIS":"569.810","LAUNCH_DATE":"2021-09-14","OBJECT_ID":"2021-082AF","GP_ID":"202444374","INCLINATION":"70.0012","OBJECT_NAME":"STARLINK-3056","MEAN_MOTION_DDOT":"0.0000000000000","REF_FRAME":"TEME","FILE":"3424437","MEAN_ANOMALY":"54.0793","OBJECT_TYPE":"PAYLOAD","CENTER_NAME":"EARTH","ECCENTRICITY":"0.00031940","REV_AT_EPOCH":"3619"},{"MEAN_MOTION_DOT":"-0.00033388","DECAY_DATE":null,"TLE_LINE1":"1 49160U 21082AG  22121.91668981 -.00033388  00000-0 -28024-2 0  9994","LAUNCH_DATE":"2021-09-14","PERIAPSIS":"569.677","TLE_LINE2":"2 49160  70.0021 243.9383 0003348 287.2910 101.8700 14.98347369  3555","SITE":"AFWTR","COUNTRY_CODE":"US","EPHEMERIS_TYPE":"0","MEAN_MOTION_DDOT":"0.0000000000000","OBJECT_NAME":"STARLINK-3095","INCLINATION":"70.0021","GP_ID":"202474848","OBJECT_ID":"2021-082AG","REV_AT_EPOCH":"355","ECCENTRICITY":"0.00033480","CENTER_NAME":"EARTH","OBJECT_TYPE":"PAYLOAD","MEAN_ANOMALY":"101.8700","FILE":"3424759","REF_FRAME":"TEME","ELEMENT_SET_NO":"999","PERIOD":"96.106","NORAD_CAT_ID":"49160","EPOCH":"2022-05-01T22:00:01.999584","CLASSIFICATION_TYPE":"U","RA_OF_ASC_NODE":"243.9383","BSTAR":"-0.00280240000000","ARG_OF_PERICENTER":"287.2910","TIME_SYSTEM":"UTC","APOAPSIS":"574.331","RCS_SIZE":"LARGE","SEMIMAJOR_AXIS":"6950.139","MEAN_MOTION":"14.98347369","MEAN_ELEMENT_THEORY":"SGP4"}];
